{"fetched_at":"2026-07-12T07:15:57.849Z","source":"https://celestrak.org/NORAD/elements/gp.php?NAME=SENTINEL&FORMAT=JSON","constellation":"sentinel-6","records":[{"OBJECT_NAME":"SENTINEL-6A","OBJECT_ID":"2020-086A","EPOCH":"2026-07-11T20:03:11.931264","CLASSIFICATION_TYPE":"U","MEAN_MOTION":12.80930061,"ECCENTRICITY":0.00078113,"INCLINATION":66.0413,"RA_OF_ASC_NODE":83.8588,"ARG_OF_PERICENTER":269.9235,"MEAN_ANOMALY":90.0885,"EPHEMERIS_TYPE":0,"NORAD_CAT_ID":46984,"ELEMENT_SET_NO":999,"REV_AT_EPOCH":26348,"BSTAR":-0.000042357781,"MEAN_MOTION_DOT":-7.1e-7,"MEAN_MOTION_DDOT":0},{"OBJECT_NAME":"SENTINEL-6B","OBJECT_ID":"2025-264A","EPOCH":"2026-07-11T20:03:41.990688","CLASSIFICATION_TYPE":"U","MEAN_MOTION":12.80930071,"ECCENTRICITY":0.00078732,"INCLINATION":66.0413,"RA_OF_ASC_NODE":83.9841,"ARG_OF_PERICENTER":268.7579,"MEAN_ANOMALY":91.2534,"EPHEMERIS_TYPE":0,"NORAD_CAT_ID":66514,"ELEMENT_SET_NO":999,"REV_AT_EPOCH":3032,"BSTAR":-0.000041261051,"MEAN_MOTION_DOT":-7.1e-7,"MEAN_MOTION_DDOT":0}]}
